FENGYUN 1C DEB          
1 38803U 99025EUT 17343.27712826  .00000886  00000-0  57052-3 0  9994
2 38803  99.0171 282.6688 0083468 306.8198  52.5333 14.04071978442647
